start=new Date('2023-01-28T00:00:00.000Z').valueOf();
sats=[{"SEMIMAJOR_AXIS":"6917.876","OBJECT_NAME":"STARLINK-4528","PERIAPSIS":"539.025","COUNTRY_CODE":"US","EPHEMERIS_TYPE":"0","REF_FRAME":"TEME","BSTAR":"0.00003347700000","APOAPSIS":"540.458","REV_AT_EPOCH":"2687","MEAN_MOTION":"15.08841368","INCLINATION":"53.2170","LAUNCH_DATE":"2022-08-10","FILE":"3763218","DECAY_DATE":null,"RA_OF_ASC_NODE":"188.0669","SITE":"AFETR","TLE_LINE2":"2 53399  53.2170 188.0669 0001036  81.9811 278.1299 15.08841368 26870","MEAN_ELEMENT_THEORY":"SGP4","TIME_SYSTEM":"UTC","OBJECT_ID":"2022-097M","NORAD_CAT_ID":"53399","OBJECT_TYPE":"PAYLOAD","MEAN_ANOMALY":"278.1299","EPOCH":"2023-01-27T17:53:49.812288","MEAN_MOTION_DDOT":"0.0000000000000","ECCENTRICITY":"0.00010360","ARG_OF_PERICENTER":"81.9811","ELEMENT_SET_NO":"999","PERIOD":"95.437","TLE_LINE1":"1 53399U 22097M   23027.74571542  .00000245  00000-0  33477-4 0  9997","CENTER_NAME":"EARTH","MEAN_MOTION_DOT":"0.00000245","RCS_SIZE":"LARGE","GP_ID":"223839718","CLASSIFICATION_TYPE":"U"},{"ECCENTRICITY":"0.00014950","ARG_OF_PERICENTER":"70.5123","MEAN_MOTION_DDOT":"0.0000000000000","EPOCH":"2023-01-27T17:22:02.241120","CENTER_NAME":"EARTH","TLE_LINE1":"1 53400U 22097N   23027.72363705 -.00000515  00000-0 -14252-4 0  9990","PERIOD":"95.438","ELEMENT_SET_NO":"999","OBJECT_ID":"2022-097N","MEAN_ELEMENT_THEORY":"SGP4","TIME_SYSTEM":"UTC","MEAN_ANOMALY":"289.6031","OBJECT_TYPE":"PAYLOAD","NORAD_CAT_ID":"53400","CLASSIFICATION_TYPE":"U","RCS_SIZE":"LARGE","MEAN_MOTION_DOT":"-0.00000515","GP_ID":"223839966","COUNTRY_CODE":"US","BSTAR":"-0.00001425200000","REF_FRAME":"TEME","EPHEMERIS_TYPE":"0","PERIAPSIS":"538.716","OBJECT_NAME":"STARLINK-4520","SEMIMAJOR_AXIS":"6917.885","DECAY_DATE":null,"FILE":"3763218","TLE_LINE2":"2 53400  53.2193 188.1613 0001495  70.5123 289.6031 15.08838409 26870","SITE":"AFETR","RA_OF_ASC_NODE":"188.1613","REV_AT_EPOCH":"2687","APOAPSIS":"540.784","LAUNCH_DATE":"2022-08-10","MEAN_MOTION":"15.08838409","INCLINATION":"53.2193"},{"INCLINATION":"53.2168","MEAN_MOTION":"15.08818670","LAUNCH_DATE":"2022-08-10","APOAPSIS":"540.843","REV_AT_EPOCH":"2686","RA_OF_ASC_NODE":"188.3969","TLE_LINE2":"2 53401  53.2168 188.3969 0001492  86.3778 273.7385 15.08818670 26860","SITE":"AFETR","FILE":"3763218","DECAY_DATE":null,"SEMIMAJOR_AXIS":"6917.946","OBJECT_NAME":"STARLINK-4525","PERIAPSIS":"538.778","EPHEMERIS_TYPE":"0","REF_FRAME":"TEME","BSTAR":"0.00027101000000","COUNTRY_CODE":"US","GP_ID":"223840713","MEAN_MOTION_DOT":"0.00004025","RCS_SIZE":"LARGE","CLASSIFICATION_TYPE":"U","NORAD_CAT_ID":"53401","OBJECT_TYPE":"PAYLOAD","MEAN_ANOMALY":"273.7385","TIME_SYSTEM":"UTC","MEAN_ELEMENT_THEORY":"SGP4","OBJECT_ID":"2022-097P","ELEMENT_SET_NO":"999","PERIOD":"95.439","TLE_LINE1":"1 53401U 22097P   23027.67211905  .00004025  00000-0  27101-3 0  9993","CENTER_NAME":"EARTH","EPOCH":"2023-01-27T16:07:51.085920","MEAN_MOTION_DDOT":"0.0000000000000","ARG_OF_PERICENTER":"86.3778","ECCENTRICITY":"0.00014920"},{"CLASSIFICATION_TYPE":"U","GP_ID":"223841458","RCS_SIZE":"LARGE","MEAN_MOTION_DOT":"0.00000799","CENTER_NAME":"EARTH","PERIOD":"95.438","ELEMENT_SET_NO":"999","TLE_LINE1":"1 53402U 22097Q   23027.71995654  .00000799  00000-0  68282-4 0  9999","MEAN_MOTION_DDOT":"0.0000000000000","ARG_OF_PERICENTER":"89.0421","ECCENTRICITY":"0.00012820","EPOCH":"2023-01-27T17:16:44.245056","OBJECT_TYPE":"PAYLOAD","MEAN_ANOMALY":"271.0718","NORAD_CAT_ID":"53402","OBJECT_ID":"2022-097Q","MEAN_ELEMENT_THEORY":"SGP4","TIME_SYSTEM":"UTC","RA_OF_ASC_NODE":"188.1692","TLE_LINE2":"2 53402  53.2166 188.1692 0001282  89.0421 271.0718 15.08838977 26876","SITE":"AFETR","DECAY_DATE":null,"FILE":"3763218","LAUNCH_DATE":"2022-08-10","INCLINATION":"53.2166","MEAN_MOTION":"15.08838977","REV_AT_EPOCH":"2687","APOAPSIS":"540.635","REF_FRAME":"TEME","BSTAR":"0.00006828200000","EPHEMERIS_TYPE":"0","COUNTRY_CODE":"US","PERIAPSIS":"538.862","SEMIMAJOR_AXIS":"6917.884","OBJECT_NAME":"STARLINK-4499"},{"APOAPSIS":"540.592","REV_AT_EPOCH":"2687","MEAN_MOTION":"15.08839565","INCLINATION":"53.2164","LAUNCH_DATE":"2022-08-10","FILE":"3763218","DECAY_DATE":null,"RA_OF_ASC_NODE":"188.1152","TLE_LINE2":"2 53403  53.2164 188.1152 0001222  93.6189 266.4943 15.08839565 26874","SITE":"AFETR","SEMIMAJOR_AXIS":"6917.882","OBJECT_NAME":"STARLINK-4507","PERIAPSIS":"538.901","COUNTRY_CODE":"US","EPHEMERIS_TYPE":"0","REF_FRAME":"TEME","BSTAR":"0.00031009000000","MEAN_MOTION_DOT":"0.00004651","RCS_SIZE":"LARGE","GP_ID":"223840215","CLASSIFICATION_TYPE":"U","TIME_SYSTEM":"UTC","MEAN_ELEMENT_THEORY":"SGP4","OBJECT_ID":"2022-097R","NORAD_CAT_ID":"53403","OBJECT_TYPE":"PAYLOAD","MEAN_ANOMALY":"266.4943","EPOCH":"2023-01-27T17:34:00.650208","MEAN_MOTION_DDOT":"0.0000000000000","ARG_OF_PERICENTER":"93.6189","ECCENTRICITY":"0.00012220","ELEMENT_SET_NO":"999","PERIOD":"95.438","TLE_LINE1":"1 53403U 22097R   23027.73195197  .00004651  00000-0  31009-3 0  9993","CENTER_NAME":"EARTH"},{"REF_FRAME":"TEME","BSTAR":"0.00009214200000","EPHEMERIS_TYPE":"0","COUNTRY_CODE":"US","PERIAPSIS":"538.977","SEMIMAJOR_AXIS":"6917.888","OBJECT_NAME":"STARLINK-4509","RA_OF_ASC_NODE":"178.2134","TLE_LINE2":"2 53404  53.2182 178.2134 0001122  87.1501 272.9620 15.08837571 27005","SITE":"AFETR","DECAY_DATE":null,"FILE":"3763218","LAUNCH_DATE":"2022-08-10","MEAN_MOTION":"15.08837571","INCLINATION":"53.2182","APOAPSIS":"540.529","REV_AT_EPOCH":"2700","CENTER_NAME":"EARTH","PERIOD":"95.438","ELEMENT_SET_NO":"999","TLE_LINE1":"1 53404U 22097S   23027.70983612  .00001179  00000-0  92142-4 0  9996","MEAN_MOTION_DDOT":"0.0000000000000","ECCENTRICITY":"0.00011220","ARG_OF_PERICENTER":"87.1501","EPOCH":"2023-01-27T17:02:09.840768","OBJECT_TYPE":"PAYLOAD","MEAN_ANOMALY":"272.9620","NORAD_CAT_ID":"53404","OBJECT_ID":"2022-097S","TIME_SYSTEM":"UTC","MEAN_ELEMENT_THEORY":"SGP4","CLASSIFICATION_TYPE":"U","GP_ID":"223840464","RCS_SIZE":"LARGE","MEAN_MOTION_DOT":"0.00001179"},{"DECAY_DATE":null,"FILE":"3763175","TLE_LINE2":"2 53405  53.2169 187.8949 0001207  94.2629 265.8501 15.08834378 26397","SITE":"AFETR","RA_OF_ASC_NODE":"187.8949","REV_AT_EPOCH":"2639","APOAPSIS":"540.598","LAUNCH_DATE":"2022-08-10","MEAN_MOTION":"15.08834378","INCLINATION":"53.2169","COUNTRY_CODE":"US","BSTAR":"0.00002769700000","REF_FRAME":"TEME","EPHEMERIS_TYPE":"0","PERIAPSIS":"538.928","OBJECT_NAME":"STARLINK-4510","SEMIMAJOR_AXIS":"6917.898","CLASSIFICATION_TYPE":"U","RCS_SIZE":"LARGE","MEAN_MOTION_DOT":"0.00000153","GP_ID":"223814899","ECCENTRICITY":"0.00012070","ARG_OF_PERICENTER":"94.2629","MEAN_MOTION_DDOT":"0.0000000000000","EPOCH":"2023-01-27T18:46:49.603584","CENTER_NAME":"EARTH","TLE_LINE1":"1 53405U 22097T   23027.78251856  .00000153  00000-0  27697-4 0  9997","PERIOD":"95.438","ELEMENT_SET_NO":"999","OBJECT_ID":"2022-097T","TIME_SYSTEM":"UTC","MEAN_ELEMENT_THEORY":"SGP4","MEAN_ANOMALY":"265.8501","OBJECT_TYPE":"PAYLOAD","NORAD_CAT_ID":"53405"},{"COUNTRY_CODE":"US","BSTAR":"-0.00010868000000","REF_FRAME":"TEME","EPHEMERIS_TYPE":"0","PERIAPSIS":"538.972","OBJECT_NAME":"STARLINK-4533","SEMIMAJOR_AXIS":"6917.832","DECAY_DATE":null,"FILE":"3763218","TLE_LINE2":"2 53406  53.2175 178.2947 0001047  98.0280 262.0831 15.08855930 27005","SITE":"AFETR","RA_OF_ASC_NODE":"178.2947","REV_AT_EPOCH":"2700","APOAPSIS":"540.421","LAUNCH_DATE":"2022-08-10","INCLINATION":"53.2175","MEAN_MOTION":"15.08855930","ECCENTRICITY":"0.00010470","ARG_OF_PERICENTER":"98.0280","MEAN_MOTION_DDOT":"0.0000000000000","EPOCH":"2023-01-27T16:35:38.953248","CENTER_NAME":"EARTH","TLE_LINE1":"1 53406U 22097U   23027.69142307 -.00002018  00000-0 -10868-3 0  9993","ELEMENT_SET_NO":"999","PERIOD":"95.437","OBJECT_ID":"2022-097U","MEAN_ELEMENT_THEORY":"SGP4","TIME_SYSTEM":"UTC","MEAN_ANOMALY":"262.0831","OBJECT_TYPE":"PAYLOAD","NORAD_CAT_ID":"53406","CLASSIFICATION_TYPE":"U","RCS_SIZE":"LARGE","MEAN_MOTION_DOT":"-0.00002018","GP_ID":"223840962"},{"GP_ID":"223839719","RCS_SIZE":"LARGE","MEAN_MOTION_DOT":"-0.00000353","CLASSIFICATION_TYPE":"U","OBJECT_TYPE":"PAYLOAD","MEAN_ANOMALY":"268.7722","NORAD_CAT_ID":"53407","OBJECT_ID":"2022-097V","TIME_SYSTEM":"UTC","MEAN_ELEMENT_THEORY":"SGP4","CENTER_NAME":"EARTH","PERIOD":"95.438","ELEMENT_SET_NO":"999","TLE_LINE1":"1 53407U 22097V   23027.69974546 -.00000353  00000-0 -41234-5 0  9995","MEAN_MOTION_DDOT":"0.0000000000000","ARG_OF_PERICENTER":"91.3397","ECCENTRICITY":"0.00011130","EPOCH":"2023-01-27T16:47:38.007744","LAUNCH_DATE":"2022-08-10","INCLINATION":"53.2172","MEAN_MOTION":"15.08838325","REV_AT_EPOCH":"2714","APOAPSIS":"540.520","RA_OF_ASC_NODE":"168.4991","SITE":"AFETR","TLE_LINE2":"2 53407  53.2172 168.4991 0001113  91.3397 268.7722 15.08838325 27148","DECAY_DATE":null,"FILE":"3763218","PERIAPSIS":"538.981","SEMIMAJOR_AXIS":"6917.886","OBJECT_NAME":"STARLINK-4537","REF_FRAME":"TEME","BSTAR":"-0.00000412340000","EPHEMERIS_TYPE":"0","COUNTRY_CODE":"US"},{"CLASSIFICATION_TYPE":"U","GP_ID":"223839967","RCS_SIZE":"LARGE","MEAN_MOTION_DOT":"0.00008022","CENTER_NAME":"EARTH","ELEMENT_SET_NO":"999","PERIOD":"95.436","TLE_LINE1":"1 53408U 22097W   23027.70248158  .00008022  00000-0  52128-3 0  9992","MEAN_MOTION_DDOT":"0.0000000000000","ECCENTRICITY":"0.00013400","ARG_OF_PERICENTER":"79.3194","EPOCH":"2023-01-27T16:51:34.408512","OBJECT_TYPE":"PAYLOAD","MEAN_ANOMALY":"280.7949","NORAD_CAT_ID":"53408","OBJECT_ID":"2022-097W","TIME_SYSTEM":"UTC","MEAN_ELEMENT_THEORY":"SGP4","RA_OF_ASC_NODE":"178.2505","TLE_LINE2":"2 53408  53.2160 178.2505 0001340  79.3194 280.7949 15.08857621 27009","SITE":"AFETR","DECAY_DATE":null,"FILE":"3763218","LAUNCH_DATE":"2022-08-10","MEAN_MOTION":"15.08857621","INCLINATION":"53.2160","APOAPSIS":"540.619","REV_AT_EPOCH":"2700","REF_FRAME":"TEME","BSTAR":"0.00052128000000","EPHEMERIS_TYPE":"0","COUNTRY_CODE":"US","PERIAPSIS":"538.765","SEMIMAJOR_AXIS":"6917.827","OBJECT_NAME":"STARLINK-4491"}];
